NORAD_CAT_ID,OBJECT_NAME,OBJECT_TYPE,EPOCH,MEAN_MOTION,ECCENTRICITY,INCLINATION,RA_OF_ASC_NODE,ARG_OF_PERICENTER,MEAN_ANOMALY,BSTAR,MEAN_MOTION_DOT,MEAN_MOTION_DDOT,TLE_LINE0,TLE_LINE1,TLE_LINE2,SEMIMAJOR_AXIS,PERIOD,APOGEE,PERIGEE,DECAYED
53798.0,STARLINK-4712,PAYLOAD,2023-09-06 11:06:59,15.08757121,0.0001494,53.2173,62.3363,106.73,253.3857,0.0013596,0.00021367,0.0,0 STARLINK-4712,1 53798U 22111AB  23249.46318557  .00021367  00000-0  13596-2 0  9993,2 53798  53.2173  62.3363 0001494 106.7300 253.3857 15.08757121 55519,6918.134,95.443,541.032,538.965,0.0
53798.0,STARLINK-4712,PAYLOAD,2023-09-06 14:17:42,15.08836495,9.95e-05,53.2174,61.7413,92.9751,267.1355,0.00013268,1.824e-05,0.0,0 STARLINK-4712,1 53798U 22111AB  23249.59563258  .00001824  00000-0  13268-3 0  9990,2 53798  53.2174  61.7413 0000995  92.9751 267.1355 15.08836495 54720,6917.891,95.438,540.444,539.068,0.0
53798.0,STARLINK-4712,PAYLOAD,2023-09-06 20:39:14,15.08844712,9.8e-05,53.2172,60.5516,93.5038,266.6067,0.00014078,1.954e-05,0.0,0 STARLINK-4712,1 53798U 22111AB  23249.86058723  .00001954  00000-0  14078-3 0  9990,2 53798  53.2172  60.5516 0000980  93.5038 266.6067 15.08844712 55577,6917.866,95.437,540.409,539.053,0.0
53798.0,STARLINK-4712,PAYLOAD,2023-09-07 10:57:43,15.08841008,0.0001143,53.2174,57.8755,83.6778,276.4344,3.4739e-05,2.65e-06,0.0,0 STARLINK-4712,1 53798U 22111AB  23250.45675324  .00000265  00000-0  34739-4 0  9990,2 53798  53.2174  57.8755 0001143  83.6778 276.4344 15.08841008 54858,6917.877,95.437,540.533,538.952,0.0
53798.0,STARLINK-4712,PAYLOAD,2023-09-07 20:30:02,15.08842736,0.0001152,53.2175,56.0914,82.6858,277.4265,4.5894e-05,4.43e-06,0.0,0 STARLINK-4712,1 53798U 22111AB  23250.85419159  .00000443  00000-0  45894-4 0  9998,2 53798  53.2175  56.0914 0001152  82.6858 277.4265 15.08842736 55724,6917.872,95.437,540.534,538.94,0.0
53798.0,STARLINK-4712,PAYLOAD,2023-09-08 04:26:57,15.0884368,0.0001161,53.2176,54.6049,82.3232,277.7892,5.0365e-05,5.14e-06,0.0,0 STARLINK-4712,1 53798U 22111AB  23251.18539047  .00000514  00000-0  50365-4 0  9992,2 53798  53.2176  54.6049 0001161  82.3232 277.7892 15.08843680 55774,6917.869,95.437,540.537,538.931,0.0
53798.0,STARLINK-4712,PAYLOAD,2023-09-08 17:10:02,15.08858361,0.0001557,53.2163,52.226,94.9438,265.1731,-0.00012962,-2.351e-05,0.0,0 STARLINK-4712,1 53798U 22111AB  23251.71530398 -.00002351  00000-0 -12962-3 0  9994,2 53798  53.2163  52.2260 0001557  94.9438 265.1731 15.08858361 55040,6917.824,95.436,540.766,538.612,0.0
53798.0,STARLINK-4712,PAYLOAD,2023-09-08 20:20:48,15.08843758,0.0001223,53.2168,51.6311,78.7785,281.3344,0.00014383,2.002e-05,0.0,0 STARLINK-4712,1 53798U 22111AB  23251.84778769  .00002002  00000-0  14383-3 0  9994,2 53798  53.2168  51.6311 0001223  78.7785 281.3344 15.08843758 55875,6917.869,95.437,540.58,538.888,0.0
53798.0,STARLINK-4712,PAYLOAD,2023-09-09 10:39:17,15.08836009,0.0001288,53.2169,48.9552,80.2983,279.8155,5.3148e-05,5.58e-06,0.0,0 STARLINK-4712,1 53798U 22111AB  23252.44395495  .00000558  00000-0  53148-4 0  9999,2 53798  53.2169  48.9552 0001288  80.2983 279.8155 15.08836009 55155,6917.893,95.438,540.649,538.867,0.0
53798.0,STARLINK-4712,PAYLOAD,2023-09-09 13:50:03,15.08837821,0.0001449,53.2184,48.3598,87.3082,272.8076,5.6043e-05,6.04e-06,0.0,0 STARLINK-4712,1 53798U 22111AB  23252.57643499  .00000604  00000-0  56043-4 0  9992,2 53798  53.2184  48.3598 0001449  87.3082 272.8076 15.08837821 55982,6917.887,95.438,540.754,538.75,0.0
53798.0,STARLINK-4712,PAYLOAD,2023-09-09 21:46:59,15.0884467,0.0001162,53.2188,46.8728,85.788,274.3245,8.3199e-05,1.037e-05,0.0,0 STARLINK-4712,1 53798U 22111AB  23252.90762996  .00001037  00000-0  83199-4 0  9996,2 53798  53.2188  46.8728 0001162  85.7880 274.3245 15.08844670 55226,6917.866,95.437,540.535,538.927,0.0
53798.0,STARLINK-4712,PAYLOAD,2023-09-10 13:40:50,15.08843766,0.0001345,53.217,43.8985,88.5018,271.6129,7.2239e-05,8.62e-06,0.0,0 STARLINK-4712,1 53798U 22111AB  23253.57003119  .00000862  00000-0  72239-4 0  9993,2 53798  53.2170  43.8985 0001345  88.5018 271.6129 15.08843766 56133,6917.869,95.437,540.664,538.803,0.0
53798.0,STARLINK-4712,PAYLOAD,2023-09-11 02:23:55,15.08846875,0.0001179,53.2188,41.5194,84.7112,275.4014,5.3693e-05,5.67e-06,0.0,0 STARLINK-4712,1 53798U 22111AB  23254.09994914  .00000567  00000-0  53693-4 0  9998,2 53798  53.2188  41.5194 0001179  84.7112 275.4014 15.08846875 55405,6917.859,95.437,540.54,538.909,0.0
53798.0,STARLINK-4712,PAYLOAD,2023-09-11 13:31:37,15.08839463,0.000133,53.2192,39.4382,91.4143,268.7002,0.00012099,1.638e-05,0.0,0 STARLINK-4712,1 53798U 22111AB  23254.56363399  .00001638  00000-0  12099-3 0  9991,2 53798  53.2192  39.4382 0001330  91.4143 268.7002 15.08839463 56287,6917.882,95.438,540.667,538.827,0.0
53798.0,STARLINK-4712,PAYLOAD,2023-09-12 13:22:24,15.08843029,0.0001182,53.2186,34.9789,86.7852,273.3276,5.3646e-05,5.66e-06,0.0,0 STARLINK-4712,1 53798U 22111AB  23255.55723324  .00000566  00000-0  53646-4 0  9992,2 53798  53.2186  34.9789 0001182  86.7852 273.3276 15.08843029 56435,6917.871,95.437,540.554,538.918,0.0
53798.0,STARLINK-4712,PAYLOAD,2023-09-12 14:57:48,15.08844013,0.000125,53.2186,34.6815,82.9248,277.1886,6.2066e-05,7e-06,0.0,0 STARLINK-4712,1 53798U 22111AB  23255.62347254  .00000700  00000-0  62066-4 0  9990,2 53798  53.2186  34.6815 0001250  82.9248 277.1886 15.08844013 55639,6917.868,95.437,540.598,538.868,0.0
53798.0,STARLINK-4712,PAYLOAD,2023-09-12 16:33:11,15.08845964,0.0001202,53.2185,34.3842,86.3228,273.7901,7.4932e-05,9.05e-06,0.0,0 STARLINK-4712,1 53798U 22111AB  23255.68971073  .00000905  00000-0  74932-4 0  9990,2 53798  53.2185  34.3842 0001202  86.3228 273.7901 15.08845964 56455,6917.862,95.437,540.559,538.896,0.0
53798.0,STARLINK-4712,PAYLOAD,2023-09-13 13:13:11,15.0884412,0.0001129,53.2184,30.519,94.2223,265.8898,0.00011012,1.465e-05,0.0,0 STARLINK-4712,1 53798U 22111AB  23256.55082944  .00001465  00000-0  11012-3 0  9998,2 53798  53.2184  30.5190 0001129  94.2223 265.8898 15.08844120 56583,6917.868,95.437,540.514,538.952,0.0
53798.0,STARLINK-4712,PAYLOAD,2023-09-13 16:23:57,15.08854572,0.0001279,53.2179,29.9239,85.8405,274.2733,0.00016289,2.306e-05,0.0,0 STARLINK-4712,1 53798U 22111AB  23256.68330274  .00002306  00000-0  16289-3 0  9990,2 53798  53.2179  29.9239 0001279  85.8405 274.2733 15.08854572 55793,6917.836,95.437,540.586,538.816,0.0
53798.0,STARLINK-4712,PAYLOAD,2023-09-14 09:53:12,15.08834502,0.0001578,53.2175,26.6533,74.08,286.0366,-2.9628e-05,-7.59e-06,0.0,0 STARLINK-4712,1 53798U 22111AB  23257.41195553 -.00000759  00000-0 -29628-4 0  9995,2 53798  53.2175  26.6533 0001578  74.0800 286.0366 15.08834502 55908,6917.897,95.438,540.854,538.671,0.0
53798.0,STARLINK-4712,PAYLOAD,2023-09-14 13:03:59,15.08830362,0.0001244,53.2176,26.0586,99.4289,260.6844,-7.9505e-05,-1.553e-05,0.0,0 STARLINK-4712,1 53798U 22111AB  23257.54443797 -.00001553  00000-0 -79505-4 0  9997,2 53798  53.2176  26.0586 0001244  99.4289 260.6844 15.08830362 56734,6917.91,95.438,540.635,538.914,0.0
53798.0,STARLINK-4712,PAYLOAD,2023-09-14 16:14:45,15.08829092,0.0001182,53.2188,25.4616,86.2528,273.86,-0.00012813,-2.326e-05,0.0,0 STARLINK-4712,1 53798U 22111AB  23257.67691970 -.00002326  00000-0 -12813-3 0  9996,2 53798  53.2188  25.4616 0001182  86.2528 273.8600 15.08829092 56751,6917.914,95.438,540.596,538.961,0.0
53798.0,STARLINK-4712,PAYLOAD,2023-09-15 12:54:46,15.08842451,0.0001238,53.2185,21.5993,70.141,289.9716,0.00016578,2.352e-05,0.0,0 STARLINK-4712,1 53798U 22111AB  23258.53803880  .00002352  00000-0  16578-3 0  9996,2 53798  53.2185  21.5993 0001238  70.1410 289.9716 15.08842451 56881,6917.873,95.437,540.594,538.881,0.0
53798.0,STARLINK-4712,PAYLOAD,2023-09-15 14:30:09,15.08847797,0.000135,53.2182,21.3,69.6047,290.509,0.00019743,2.856e-05,0.0,0 STARLINK-4712,1 53798U 22111AB  23258.60427627  .00002856  00000-0  19743-3 0  9991,2 53798  53.2182  21.3000 0001350  69.6047 290.5090 15.08847797 56082,6917.857,95.437,540.655,538.788,0.0
53798.0,STARLINK-4712,PAYLOAD,2023-09-16 07:59:24,15.08839222,0.0001811,53.2187,18.0317,56.2389,303.8775,0.00036882,5.586e-05,0.0,0 STARLINK-4712,1 53798U 22111AB  23259.33292510  .00005586  00000-0  36882-3 0  9999,2 53798  53.2187  18.0317 0001811  56.2389 303.8775 15.08839222 56198,6917.883,95.438,541.001,538.495,0.0
53798.0,STARLINK-4712,PAYLOAD,2023-09-16 12:45:34,15.08838496,0.0001751,53.2188,17.1392,59.2461,300.8704,0.0003055,4.577e-05,0.0,0 STARLINK-4712,1 53798U 22111AB  23259.53164574  .00004577  00000-0  30550-3 0  9994,2 53798  53.2188  17.1392 0001751  59.2461 300.8704 15.08838496 57034,6917.885,95.438,540.961,538.539,0.0
53798.0,STARLINK-4712,PAYLOAD,2023-09-17 12:36:20,15.08844896,0.00015,53.2187,12.6789,71.9785,288.1371,0.0002349,3.453e-05,0.0,0 STARLINK-4712,1 53798U 22111AB  23260.52524127  .00003453  00000-0  23490-3 0  9996,2 53798  53.2187  12.6789 0001500  71.9785 288.1371 15.08844896 57180,6917.865,95.437,540.768,538.693,0.0
53798.0,STARLINK-4712,PAYLOAD,2023-09-17 14:11:43,15.08850615,0.0001466,53.2193,12.3808,82.7899,277.326,0.00011273,1.507e-05,0.0,0 STARLINK-4712,1 53798U 22111AB  23260.59147709  .00001507  00000-0  11273-3 0  9994,2 53798  53.2193  12.3808 0001466  82.7899 277.3260 15.08850615 56387,6917.848,95.437,540.727,538.699,0.0
53798.0,STARLINK-4712,PAYLOAD,2023-09-18 10:51:44,15.08842218,0.0001463,53.2203,8.5152,89.3168,270.7992,4.2462e-05,3.88e-06,0.0,0 STARLINK-4712,1 53798U 22111AB  23261.45260098  .00000388  00000-0  42462-4 0  9998,2 53798  53.2203   8.5152 0001463  89.3168 270.7992 15.08842218 56511,6917.874,95.437,540.751,538.727,0.0
53798.0,STARLINK-4712,PAYLOAD,2023-09-18 14:02:30,15.08847014,0.0001437,53.22,7.9195,93.1387,266.977,7.1643e-05,8.53e-06,0.0,0 STARLINK-4712,1 53798U 22111AB  23261.58507631  .00000853  00000-0  71643-4 0  9999,2 53798  53.2200   7.9195 0001437  93.1387 266.9770 15.08847014 57347,6917.859,95.437,540.718,538.73,0.0
